STARLINK-32418          
1 62429U 24249W   26068.09725305  .00037322  00000+0  13582-2 0  9994
2 62429  43.0035 317.3630 0002836 248.5584 111.4966 15.27594460 67721
FLOCK 4G-2              
1 62661U 25009BE  26068.66207492  .00013752  00000+0  51068-3 0  9995
2 62661  97.4044 151.2221 0003181 329.2677  30.8376 15.27675260121321
